[{"OBJECT_NAME":"STARLINK-30712","OBJECT_ID":"2023-148A","EPOCH":"2025-11-21T00:08:14.518176","MEAN_MOTION":15.30194467,"ECCENTRICITY":0.0001163,"INCLINATION":53.1581,"RA_OF_ASC_NODE":169.0235,"ARG_OF_PERICENTER":68.4731,"MEAN_ANOMALY":291.6393,"EPHEMERIS_TYPE":0,"CLASSIFICATION_TYPE":"U","NORAD_CAT_ID":57935,"ELEMENT_SET_NO":999,"REV_AT_EPOCH":12178,"BSTAR":1.9675e-5,"MEAN_MOTION_DOT":2.24e-6,"MEAN_MOTION_DDOT":0},{"OBJECT_NAME":"STARLINK-30716","OBJECT_ID":"2023-148B","EPOCH":"2025-11-21T22:47:31.240032","MEAN_MOTION":15.301872,"ECCENTRICITY":0.0001367,"INCLINATION":53.1606,"RA_OF_ASC_NODE":164.8759,"ARG_OF_PERICENTER":71.5948,"MEAN_ANOMALY":288.5201,"EPHEMERIS_TYPE":0,"CLASSIFICATION_TYPE":"U","NORAD_CAT_ID":57936,"ELEMENT_SET_NO":999,"REV_AT_EPOCH":12192,"BSTAR":-8.9002e-7,"MEAN_MOTION_DOT":-3.86e-6,"MEAN_MOTION_DDOT":0},{"OBJECT_NAME":"STARLINK-30400","OBJECT_ID":"2023-148C","EPOCH":"2025-11-21T20:35:29.090976","MEAN_MOTION":15.30194707,"ECCENTRICITY":9.82e-5,"INCLINATION":53.1592,"RA_OF_ASC_NODE":165.0619,"ARG_OF_PERICENTER":99.5843,"MEAN_ANOMALY":260.5268,"EPHEMERIS_TYPE":0,"CLASSIFICATION_TYPE":"U","NORAD_CAT_ID":57937,"ELEMENT_SET_NO":999,"REV_AT_EPOCH":12191,"BSTAR":1.6599e-5,"MEAN_MOTION_DOT":1.33e-6,"MEAN_MOTION_DDOT":0},{"OBJECT_NAME":"STARLINK-30710","OBJECT_ID":"2023-148D","EPOCH":"2025-11-21T21:51:27.319104","MEAN_MOTION":15.30188879,"ECCENTRICITY":0.0001254,"INCLINATION":53.1596,"RA_OF_ASC_NODE":154.8432,"ARG_OF_PERICENTER":92.5379,"MEAN_ANOMALY":267.5766,"EPHEMERIS_TYPE":0,"CLASSIFICATION_TYPE":"U","NORAD_CAT_ID":57938,"ELEMENT_SET_NO":999,"REV_AT_EPOCH":12205,"BSTAR":-1.6981e-6,"MEAN_MOTION_DOT":-4.09e-6,"MEAN_MOTION_DDOT":0},{"OBJECT_NAME":"STARLINK-30714","OBJECT_ID":"2023-148E","EPOCH":"2025-11-21T22:56:37.922208","MEAN_MOTION":15.30191049,"ECCENTRICITY":0.0001551,"INCLINATION":53.1586,"RA_OF_ASC_NODE":164.9032,"ARG_OF_PERICENTER":63.6524,"MEAN_ANOMALY":296.4636,"EPHEMERIS_TYPE":0,"CLASSIFICATION_TYPE":"U","NORAD_CAT_ID":57939,"ELEMENT_SET_NO":999,"REV_AT_EPOCH":12192,"BSTAR":1.207e-5,"MEAN_MOTION_DOT":-2.0e-8,"MEAN_MOTION_DDOT":0},{"OBJECT_NAME":"STARLINK-30711","OBJECT_ID":"2023-148F","EPOCH":"2025-11-21T19:43:58.111968","MEAN_MOTION":15.30199572,"ECCENTRICITY":0.0001519,"INCLINATION":53.1587,"RA_OF_ASC_NODE":165.5065,"ARG_OF_PERICENTER":97.769,"MEAN_ANOMALY":262.3483,"EPHEMERIS_TYPE":0,"CLASSIFICATION_TYPE":"U","NORAD_CAT_ID":57940,"ELEMENT_SET_NO":999,"REV_AT_EPOCH":12190,"BSTAR":8.0675e-5,"MEAN_MOTION_DOT":2.031e-5,"MEAN_MOTION_DDOT":0},{"OBJECT_NAME":"STARLINK-30715","OBJECT_ID":"2023-148G","EPOCH":"2025-11-21T21:39:15.841152","MEAN_MOTION":15.30192958,"ECCENTRICITY":9.84e-5,"INCLINATION":53.1584,"RA_OF_ASC_NODE":154.6514,"ARG_OF_PERICENTER":77.9128,"MEAN_ANOMALY":282.1983,"EPHEMERIS_TYPE":0,"CLASSIFICATION_TYPE":"U","NORAD_CAT_ID":57941,"ELEMENT_SET_NO":999,"REV_AT_EPOCH":12206,"BSTAR":9.2986e-7,"MEAN_MOTION_DOT":-3.31e-6,"MEAN_MOTION_DDOT":0},{"OBJECT_NAME":"STARLINK-30455","OBJECT_ID":"2023-148H","EPOCH":"2025-11-21T19:53:04.701696","MEAN_MOTION":15.30193353,"ECCENTRICITY":0.0001292,"INCLINATION":53.1575,"RA_OF_ASC_NODE":165.4919,"ARG_OF_PERICENTER":82.4599,"MEAN_ANOMALY":277.6549,"EPHEMERIS_TYPE":0,"CLASSIFICATION_TYPE":"U","NORAD_CAT_ID":57942,"ELEMENT_SET_NO":999,"REV_AT_EPOCH":12190,"BSTAR":3.0501e-5,"MEAN_MOTION_DOT":5.44e-6,"MEAN_MOTION_DDOT":0},{"OBJECT_NAME":"STARLINK-30456","OBJECT_ID":"2023-148J","EPOCH":"2025-11-21T21:08:54.710592","MEAN_MOTION":15.3020092,"ECCENTRICITY":0.0001282,"INCLINATION":53.1602,"RA_OF_ASC_NODE":165.2369,"ARG_OF_PERICENTER":78.8394,"MEAN_ANOMALY":281.2751,"EPHEMERIS_TYPE":0,"CLASSIFICATION_TYPE":"U","NORAD_CAT_ID":57943,"ELEMENT_SET_NO":999,"REV_AT_EPOCH":12191,"BSTAR":6.1161e-5,"MEAN_MOTION_DOT":1.453e-5,"MEAN_MOTION_DDOT":0},{"OBJECT_NAME":"STARLINK-30708","OBJECT_ID":"2023-148K","EPOCH":"2025-11-21T22:14:06.328896","MEAN_MOTION":15.30192833,"ECCENTRICITY":0.0001013,"INCLINATION":53.1593,"RA_OF_ASC_NODE":164.8069,"ARG_OF_PERICENTER":95.7237,"MEAN_ANOMALY":264.3879,"EPHEMERIS_TYPE":0,"CLASSIFICATION_TYPE":"U","NORAD_CAT_ID":57944,"ELEMENT_SET_NO":999,"REV_AT_EPOCH":12192,"BSTAR":2.1667e-6,"MEAN_MOTION_DOT":-2.95e-6,"MEAN_MOTION_DDOT":0},{"OBJECT_NAME":"STARLINK-30705","OBJECT_ID":"2023-148L","EPOCH":"2025-11-21T22:29:18.236832","MEAN_MOTION":15.30188999,"ECCENTRICITY":0.0001034,"INCLINATION":53.1592,"RA_OF_ASC_NODE":164.8764,"ARG_OF_PERICENTER":121.5889,"MEAN_ANOMALY":238.5213,"EPHEMERIS_TYPE":0,"CLASSIFICATION_TYPE":"U","NORAD_CAT_ID":57945,"ELEMENT_SET_NO":999,"REV_AT_EPOCH":12192,"BSTAR":-1.5798e-5,"MEAN_MOTION_DOT":-8.27e-6,"MEAN_MOTION_DDOT":0},{"OBJECT_NAME":"STARLINK-30704","OBJECT_ID":"2023-148M","EPOCH":"2025-11-22T02:08:03.854400","MEAN_MOTION":15.30175369,"ECCENTRICITY":0.0001264,"INCLINATION":53.1608,"RA_OF_ASC_NODE":241.2431,"ARG_OF_PERICENTER":94.131,"MEAN_ANOMALY":265.9836,"EPHEMERIS_TYPE":0,"CLASSIFICATION_TYPE":"U","NORAD_CAT_ID":57946,"ELEMENT_SET_NO":999,"REV_AT_EPOCH":12084,"BSTAR":-0.00017469,"MEAN_MOTION_DOT":-5.525e-5,"MEAN_MOTION_DDOT":0},{"OBJECT_NAME":"STARLINK-30706","OBJECT_ID":"2023-148N","EPOCH":"2025-11-21T22:38:25.109088","MEAN_MOTION":15.30187971,"ECCENTRICITY":0.0001252,"INCLINATION":53.1601,"RA_OF_ASC_NODE":164.9049,"ARG_OF_PERICENTER":94.3012,"MEAN_ANOMALY":265.8131,"EPHEMERIS_TYPE":0,"CLASSIFICATION_TYPE":"U","NORAD_CAT_ID":57947,"ELEMENT_SET_NO":999,"REV_AT_EPOCH":12192,"BSTAR":-4.7327e-6,"MEAN_MOTION_DOT":-4.99e-6,"MEAN_MOTION_DDOT":0},{"OBJECT_NAME":"STARLINK-30707","OBJECT_ID":"2023-148Q","EPOCH":"2025-11-21T22:33:51.573600","MEAN_MOTION":15.30190734,"ECCENTRICITY":6.68e-5,"INCLINATION":53.1599,"RA_OF_ASC_NODE":164.8911,"ARG_OF_PERICENTER":90.4427,"MEAN_ANOMALY":269.6651,"EPHEMERIS_TYPE":0,"CLASSIFICATION_TYPE":"U","NORAD_CAT_ID":57949,"ELEMENT_SET_NO":999,"REV_AT_EPOCH":12192,"BSTAR":1.9481e-5,"MEAN_MOTION_DOT":2.18e-6,"MEAN_MOTION_DDOT":0},{"OBJECT_NAME":"STARLINK-30701","OBJECT_ID":"2023-148R","EPOCH":"2025-11-21T23:58:47.564832","MEAN_MOTION":15.30189008,"ECCENTRICITY":0.0001099,"INCLINATION":53.159,"RA_OF_ASC_NODE":164.5309,"ARG_OF_PERICENTER":97.6936,"MEAN_ANOMALY":262.4189,"EPHEMERIS_TYPE":0,"CLASSIFICATION_TYPE":"U","NORAD_CAT_ID":57950,"ELEMENT_SET_NO":999,"REV_AT_EPOCH":12193,"BSTAR":-9.6159e-6,"MEAN_MOTION_DOT":-6.44e-6,"MEAN_MOTION_DDOT":0},{"OBJECT_NAME":"STARLINK-30399","OBJECT_ID":"2023-148S","EPOCH":"2025-11-21T20:44:36.421152","MEAN_MOTION":15.30192976,"ECCENTRICITY":0.0001148,"INCLINATION":53.1585,"RA_OF_ASC_NODE":165.1112,"ARG_OF_PERICENTER":87.6342,"MEAN_ANOMALY":272.4791,"EPHEMERIS_TYPE":0,"CLASSIFICATION_TYPE":"U","NORAD_CAT_ID":57951,"ELEMENT_SET_NO":999,"REV_AT_EPOCH":12191,"BSTAR":6.033e-6,"MEAN_MOTION_DOT":-1.8e-6,"MEAN_MOTION_DDOT":0},{"OBJECT_NAME":"STARLINK-30713","OBJECT_ID":"2023-148T","EPOCH":"2025-11-21T23:29:55.530816","MEAN_MOTION":15.30208203,"ECCENTRICITY":0.0001815,"INCLINATION":53.16,"RA_OF_ASC_NODE":164.4288,"ARG_OF_PERICENTER":85.7652,"MEAN_ANOMALY":274.3556,"EPHEMERIS_TYPE":0,"CLASSIFICATION_TYPE":"U","NORAD_CAT_ID":57952,"ELEMENT_SET_NO":999,"REV_AT_EPOCH":12193,"BSTAR":2.1263e-5,"MEAN_MOTION_DOT":2.7e-6,"MEAN_MOTION_DDOT":0}]
