STARLINK-30712          
1 57935U 23148A   25325.00572359  .00000224  00000+0  19675-4 0  9994
2 57935  53.1581 169.0235 0001163  68.4731 291.6393 15.30194467121782
STARLINK-30716          
1 57936U 23148B   25325.94966713 -.00000386  00000+0 -89002-6 0  9993
2 57936  53.1606 164.8759 0001367  71.5948 288.5201 15.30187200121922
STARLINK-30400          
1 57937U 23148C   25325.85797559  .00000133  00000+0  16599-4 0  9991
2 57937  53.1592 165.0619 0000982  99.5843 260.5268 15.30194707121913
STARLINK-30710          
1 57938U 23148D   25325.91073286 -.00000409  00000+0 -16981-5 0  9997
2 57938  53.1596 154.8432 0001254  92.5379 267.5766 15.30188879122056
STARLINK-30714          
1 57939U 23148E   25325.95599447 -.00000002  00000+0  12070-4 0  9996
2 57939  53.1586 164.9032 0001551  63.6524 296.4636 15.30191049121920
STARLINK-30711          
1 57940U 23148F   25325.82220037  .00002031  00000+0  80675-4 0  9999
2 57940  53.1587 165.5065 0001519  97.7690 262.3483 15.30199572121901
STARLINK-30715          
1 57941U 23148G   25325.90226668 -.00000331  00000+0  92986-6 0  9997
2 57941  53.1584 154.6514 0000984  77.9128 282.1983 15.30192958122062
STARLINK-30455          
1 57942U 23148H   25325.82852664  .00000544  00000+0  30501-4 0  9998
2 57942  53.1575 165.4919 0001292  82.4599 277.6549 15.30193353121907
STARLINK-30456          
1 57943U 23148J   25325.88118878  .00001453  00000+0  61161-4 0  9993
2 57943  53.1602 165.2369 0001282  78.8394 281.2751 15.30200920121913
STARLINK-30708          
1 57944U 23148K   25325.92646214 -.00000295  00000+0  21667-5 0  9991
2 57944  53.1593 164.8069 0001013  95.7237 264.3879 15.30192833121928
STARLINK-30705          
1 57945U 23148L   25325.93701663 -.00000827  00000+0 -15798-4 0  9992
2 57945  53.1592 164.8764 0001034 121.5889 238.5213 15.30188999121927
STARLINK-30704          
1 57946U 23148M   25326.08893350 -.00005525  00000+0 -17469-3 0  9991
2 57946  53.1608 241.2431 0001264  94.1310 265.9836 15.30175369120848
STARLINK-30706          
1 57947U 23148N   25325.94334617 -.00000499  00000+0 -47327-5 0  9995
2 57947  53.1601 164.9049 0001252  94.3012 265.8131 15.30187971121925
STARLINK-30707          
1 57949U 23148Q   25325.94018025  .00000218  00000+0  19481-4 0  9995
2 57949  53.1599 164.8911 0000668  90.4427 269.6651 15.30190734121927
STARLINK-30701          
1 57950U 23148R   25325.99916163 -.00000644  00000+0 -96159-5 0  9995
2 57950  53.1590 164.5309 0001099  97.6936 262.4189 15.30189008121931
STARLINK-30399          
1 57951U 23148S   25325.86431043 -.00000180  00000+0  60330-5 0  9997
2 57951  53.1585 165.1112 0001148  87.6342 272.4791 15.30192976121916
STARLINK-30713          
1 57952U 23148T   25325.97911494  .00000270  00000+0  21263-4 0  9993
2 57952  53.1600 164.4288 0001815  85.7652 274.3556 15.30208203121938
